start=new Date('2022-03-02T00:00:00.000Z').valueOf();
sats=[{"NORAD_CAT_ID":"47151","REF_FRAME":"TEME","PERIOD":"95.592","ECCENTRICITY":"0.00017590","ELEMENT_SET_NO":"999","TLE_LINE2":"2 47151  53.0560  55.8675 0001759  57.6538 302.4621 15.06398651 70437","MEAN_MOTION_DOT":"0.00001053","EPOCH":"2022-03-01T18:26:20.681952","PERIAPSIS":"546.000","TLE_LINE1":"1 47151U 20088AF  22060.76829493  .00001053  00000-0  89586-4 0  9993","COUNTRY_CODE":"US","EPHEMERIS_TYPE":"0","MEAN_MOTION_DDOT":"0.0000000000000","REV_AT_EPOCH":"7043","INCLINATION":"53.0560","TIME_SYSTEM":"UTC","SEMIMAJOR_AXIS":"6925.353","OBJECT_ID":"2020-088AF","CLASSIFICATION_TYPE":"U","RCS_SIZE":"LARGE","DECAY_DATE":null,"APOAPSIS":"548.436","MEAN_ELEMENT_THEORY":"SGP4","BSTAR":"0.00008958600000","FILE":"3338635","OBJECT_TYPE":"PAYLOAD","GP_ID":"197542518","MEAN_ANOMALY":"302.4621","SITE":"AFETR","RA_OF_ASC_NODE":"55.8675","LAUNCH_DATE":"2020-11-25","CENTER_NAME":"EARTH","OBJECT_NAME":"STARLINK-1864","ARG_OF_PERICENTER":"57.6538","MEAN_MOTION":"15.06398651"},{"RCS_SIZE":"LARGE","DECAY_DATE":null,"APOAPSIS":"548.347","MEAN_ELEMENT_THEORY":"SGP4","BSTAR":"0.00011863000000","FILE":"3337314","OBJECT_TYPE":"PAYLOAD","GP_ID":"197490298","MEAN_ANOMALY":"302.4149","SITE":"AFETR","RA_OF_ASC_NODE":"57.1330","LAUNCH_DATE":"2020-11-25","CENTER_NAME":"EARTH","OBJECT_NAME":"STARLINK-1866","ARG_OF_PERICENTER":"57.6996","MEAN_MOTION":"15.06393191","NORAD_CAT_ID":"47152","REF_FRAME":"TEME","PERIOD":"95.593","ECCENTRICITY":"0.00016070","ELEMENT_SET_NO":"999","TLE_LINE2":"2 47152  53.0556  57.1330 0001607  57.6996 302.4149 15.06393191 70390","MEAN_MOTION_DOT":"0.00001486","EPOCH":"2022-03-01T11:42:57.073248","PERIAPSIS":"546.122","EPHEMERIS_TYPE":"0","TLE_LINE1":"1 47152U 20088AG  22060.48816057  .00001486  00000-0  11863-3 0  9997","COUNTRY_CODE":"US","MEAN_MOTION_DDOT":"0.0000000000000","INCLINATION":"53.0556","REV_AT_EPOCH":"7039","TIME_SYSTEM":"UTC","SEMIMAJOR_AXIS":"6925.369","OBJECT_ID":"2020-088AG","CLASSIFICATION_TYPE":"U"},{"RA_OF_ASC_NODE":"62.5325","LAUNCH_DATE":"2020-11-25","ARG_OF_PERICENTER":"57.4748","OBJECT_NAME":"STARLINK-1867","CENTER_NAME":"EARTH","MEAN_MOTION":"15.06400539","DECAY_DATE":null,"RCS_SIZE":"LARGE","APOAPSIS":"548.427","MEAN_ELEMENT_THEORY":"SGP4","FILE":"3337695","BSTAR":"0.00007649200000","OBJECT_TYPE":"PAYLOAD","MEAN_ANOMALY":"302.6410","SITE":"AFETR","GP_ID":"197500932","EPHEMERIS_TYPE":"0","TLE_LINE1":"1 47153U 20088AH  22060.39644711  .00000858  00000-0  76492-4 0  9996","COUNTRY_CODE":"US","PERIAPSIS":"545.997","MEAN_MOTION_DDOT":"0.0000000000000","REV_AT_EPOCH":"7056","INCLINATION":"53.0545","SEMIMAJOR_AXIS":"6925.347","TIME_SYSTEM":"UTC","OBJECT_ID":"2020-088AH","CLASSIFICATION_TYPE":"U","NORAD_CAT_ID":"47153","REF_FRAME":"TEME","PERIOD":"95.592","ECCENTRICITY":"0.00017550","ELEMENT_SET_NO":"999","TLE_LINE2":"2 47153  53.0545  62.5325 0001755  57.4748 302.6410 15.06400539 70567","EPOCH":"2022-03-01T09:30:53.030304","MEAN_MOTION_DOT":"0.00000858"},{"PERIOD":"95.592","ECCENTRICITY":"0.00017250","REF_FRAME":"TEME","NORAD_CAT_ID":"47154","EPOCH":"2022-03-01T07:50:44.077056","MEAN_MOTION_DOT":"0.00001460","TLE_LINE2":"2 47154  53.0548  47.8410 0001725  63.2019 296.9146 15.06403816 70512","ELEMENT_SET_NO":"999","MEAN_MOTION_DDOT":"0.0000000000000","TLE_LINE1":"1 47154U 20088AJ  22060.32689904  .00001460  00000-0  11687-3 0  9997","EPHEMERIS_TYPE":"0","COUNTRY_CODE":"US","PERIAPSIS":"546.007","CLASSIFICATION_TYPE":"U","OBJECT_ID":"2020-088AJ","SEMIMAJOR_AXIS":"6925.337","TIME_SYSTEM":"UTC","REV_AT_EPOCH":"7051","INCLINATION":"53.0548","MEAN_ELEMENT_THEORY":"SGP4","APOAPSIS":"548.396","DECAY_DATE":null,"RCS_SIZE":"LARGE","MEAN_ANOMALY":"296.9146","SITE":"AFETR","GP_ID":"197490801","OBJECT_TYPE":"PAYLOAD","FILE":"3337314","BSTAR":"0.00011687000000","LAUNCH_DATE":"2020-11-25","RA_OF_ASC_NODE":"47.8410","MEAN_MOTION":"15.06403816","ARG_OF_PERICENTER":"63.2019","OBJECT_NAME":"STARLINK-1868","CENTER_NAME":"EARTH"},{"BSTAR":"0.00005940100000","FILE":"3337314","OBJECT_TYPE":"PAYLOAD","GP_ID":"197489552","SITE":"AFETR","MEAN_ANOMALY":"310.6621","DECAY_DATE":null,"RCS_SIZE":"LARGE","APOAPSIS":"548.759","MEAN_ELEMENT_THEORY":"SGP4","OBJECT_NAME":"STARLINK-1869","CENTER_NAME":"EARTH","ARG_OF_PERICENTER":"49.4562","MEAN_MOTION":"15.06400253","RA_OF_ASC_NODE":"67.9745","LAUNCH_DATE":"2020-11-25","ELEMENT_SET_NO":"999","TLE_LINE2":"2 47155  53.0563  67.9745 0002232  49.4562 310.6621 15.06400253 70229","MEAN_MOTION_DOT":"0.00000603","EPOCH":"2022-03-01T07:05:37.246272","NORAD_CAT_ID":"47155","REF_FRAME":"TEME","PERIOD":"95.592","ECCENTRICITY":"0.00022320","INCLINATION":"53.0563","REV_AT_EPOCH":"7022","TIME_SYSTEM":"UTC","SEMIMAJOR_AXIS":"6925.348","OBJECT_ID":"2020-088AK","CLASSIFICATION_TYPE":"U","PERIAPSIS":"545.667","EPHEMERIS_TYPE":"0","TLE_LINE1":"1 47155U 20088AK  22060.29556998  .00000603  00000-0  59401-4 0  9995","COUNTRY_CODE":"US","MEAN_MOTION_DDOT":"0.0000000000000"},{"APOAPSIS":"329.488","RCS_SIZE":"LARGE","DECAY_DATE":null,"MEAN_ELEMENT_THEORY":"SGP4","BSTAR":"0.00070634000000","FILE":"3338635","GP_ID":"197541766","MEAN_ANOMALY":"79.4712","SITE":"AFETR","OBJECT_TYPE":"PAYLOAD","RA_OF_ASC_NODE":"295.2069","LAUNCH_DATE":"2020-11-25","CENTER_NAME":"EARTH","OBJECT_NAME":"STARLINK-1870","ARG_OF_PERICENTER":"280.5405","MEAN_MOTION":"15.82241935","NORAD_CAT_ID":"47156","PERIOD":"91.010","ECCENTRICITY":"0.00080330","REF_FRAME":"TEME","TLE_LINE2":"2 47156  53.0518 295.2069 0008033 280.5405  79.4712 15.82241935 72153","ELEMENT_SET_NO":"999","MEAN_MOTION_DOT":"0.00150759","EPOCH":"2022-03-01T22:00:49.474656","PERIAPSIS":"318.720","EPHEMERIS_TYPE":"0","TLE_LINE1":"1 47156U 20088AL  22060.91723929  .00150759  00000-0  70634-3 0  9993","COUNTRY_CODE":"US","MEAN_MOTION_DDOT":"0.0000000000000","TIME_SYSTEM":"UTC","SEMIMAJOR_AXIS":"6702.239","INCLINATION":"53.0518","REV_AT_EPOCH":"7215","CLASSIFICATION_TYPE":"U","OBJECT_ID":"2020-088AL"},{"REF_FRAME":"TEME","ECCENTRICITY":"0.00019660","PERIOD":"95.593","NORAD_CAT_ID":"47157","MEAN_MOTION_DOT":"0.00000452","EPOCH":"2022-03-01T09:35:33.880416","ELEMENT_SET_NO":"999","TLE_LINE2":"2 47157  53.0541  57.5057 0001966  54.3313 305.7858 15.06393444 70387","MEAN_MOTION_DDOT":"0.0000000000000","PERIAPSIS":"545.872","TLE_LINE1":"1 47157U 20088AM  22060.39969769  .00000452  00000-0  49229-4 0  9991","COUNTRY_CODE":"US","EPHEMERIS_TYPE":"0","OBJECT_ID":"2020-088AM","CLASSIFICATION_TYPE":"U","REV_AT_EPOCH":"7038","INCLINATION":"53.0541","TIME_SYSTEM":"UTC","SEMIMAJOR_AXIS":"6925.369","MEAN_ELEMENT_THEORY":"SGP4","DECAY_DATE":null,"RCS_SIZE":"LARGE","APOAPSIS":"548.595","OBJECT_TYPE":"PAYLOAD","GP_ID":"197491051","MEAN_ANOMALY":"305.7858","SITE":"AFETR","BSTAR":"0.00004922900000","FILE":"3337314","LAUNCH_DATE":"2020-11-25","RA_OF_ASC_NODE":"57.5057","MEAN_MOTION":"15.06393444","OBJECT_NAME":"STARLINK-1871","CENTER_NAME":"EARTH","ARG_OF_PERICENTER":"54.3313"},{"MEAN_MOTION":"15.06403612","CENTER_NAME":"EARTH","OBJECT_NAME":"STARLINK-1873","ARG_OF_PERICENTER":"57.6733","LAUNCH_DATE":"2020-11-25","RA_OF_ASC_NODE":"47.7005","GP_ID":"197491302","SITE":"AFETR","MEAN_ANOMALY":"302.4429","OBJECT_TYPE":"PAYLOAD","BSTAR":"0.00009734200000","FILE":"3337314","MEAN_ELEMENT_THEORY":"SGP4","APOAPSIS":"548.441","RCS_SIZE":"LARGE","DECAY_DATE":null,"CLASSIFICATION_TYPE":"U","OBJECT_ID":"2020-088AN","TIME_SYSTEM":"UTC","SEMIMAJOR_AXIS":"6925.337","REV_AT_EPOCH":"7051","INCLINATION":"53.0559","MEAN_MOTION_DDOT":"0.0000000000000","PERIAPSIS":"545.964","TLE_LINE1":"1 47158U 20088AN  22060.35638407  .00001169  00000-0  97342-4 0  9995","COUNTRY_CODE":"US","EPHEMERIS_TYPE":"0","MEAN_MOTION_DOT":"0.00001169","EPOCH":"2022-03-01T08:33:11.583648","TLE_LINE2":"2 47158  53.0559  47.7005 0001788  57.6733 302.4429 15.06403612 70517","ELEMENT_SET_NO":"999","PERIOD":"95.592","ECCENTRICITY":"0.00017880","REF_FRAME":"TEME","NORAD_CAT_ID":"47158"},{"ARG_OF_PERICENTER":"273.6732","OBJECT_NAME":"STARLINK-1874","CENTER_NAME":"EARTH","MEAN_MOTION":"15.82120401","RA_OF_ASC_NODE":"19.0642","LAUNCH_DATE":"2020-11-25","FILE":"3337768","BSTAR":"0.00080142000000","OBJECT_TYPE":"PAYLOAD","SITE":"AFETR","MEAN_ANOMALY":"86.3747","GP_ID":"197502256","DECAY_DATE":null,"RCS_SIZE":"LARGE","APOAPSIS":"327.631","MEAN_ELEMENT_THEORY":"SGP4","REV_AT_EPOCH":"7121","INCLINATION":"53.0534","SEMIMAJOR_AXIS":"6702.582","TIME_SYSTEM":"UTC","OBJECT_ID":"2020-088AP","CLASSIFICATION_TYPE":"U","COUNTRY_CODE":"US","TLE_LINE1":"1 47159U 20088AP  22060.86728689  .00170329  00000-0  80142-3 0  9998","EPHEMERIS_TYPE":"0","PERIAPSIS":"321.264","MEAN_MOTION_DDOT":"0.0000000000000","ELEMENT_SET_NO":"999","TLE_LINE2":"2 47159  53.0534  19.0642 0004750 273.6732  86.3747 15.82120401 71216","EPOCH":"2022-03-01T20:48:53.587296","MEAN_MOTION_DOT":"0.00170329","NORAD_CAT_ID":"47159","REF_FRAME":"TEME","PERIOD":"91.017","ECCENTRICITY":"0.00047500"},{"MEAN_MOTION_DDOT":"0.0000000000000","COUNTRY_CODE":"US","TLE_LINE1":"1 47161U 20088AR  22060.38956134  .00000505  00000-0  52817-4 0  9993","EPHEMERIS_TYPE":"0","PERIAPSIS":"546.091","CLASSIFICATION_TYPE":"U","OBJECT_ID":"2020-088AR","SEMIMAJOR_AXIS":"6925.356","TIME_SYSTEM":"UTC","REV_AT_EPOCH":"7052","INCLINATION":"53.0555","ECCENTRICITY":"0.00016320","PERIOD":"95.592","REF_FRAME":"TEME","NORAD_CAT_ID":"47161","EPOCH":"2022-03-01T09:20:58.099776","MEAN_MOTION_DOT":"0.00000505","TLE_LINE2":"2 47161  53.0555  47.5548 0001632  56.2128 303.9016 15.06397608 70524","ELEMENT_SET_NO":"999","LAUNCH_DATE":"2020-11-25","RA_OF_ASC_NODE":"47.5548","MEAN_MOTION":"15.06397608","ARG_OF_PERICENTER":"56.2128","OBJECT_NAME":"STARLINK-1876","CENTER_NAME":"EARTH","MEAN_ELEMENT_THEORY":"SGP4","APOAPSIS":"548.351","RCS_SIZE":"LARGE","DECAY_DATE":null,"SITE":"AFETR","MEAN_ANOMALY":"303.9016","GP_ID":"197490299","OBJECT_TYPE":"PAYLOAD","FILE":"3337314","BSTAR":"0.00005281700000"}];
